MOLNIYA 2-9             
1 07276U 74026A   22315.28214501  .00000135  00000+0  00000+0 0  9994
2 07276  64.2786 206.8774 6424346 279.4236  18.0808  2.45096350252810
MOLNIYA 2-10            
1 07376U 74056A   22315.58745430  .00000901  00000+0  00000+0 0  9992
2 07376  64.3126  79.4672 6758493 285.5453  13.7377  2.01081331353318
MOLNIYA 1-S             
1 07392U 74060A   22317.53074764  .00000127  00000+0  00000+0 0  9997
2 07392   4.7438 280.6969 0011011 216.8726 156.2027  1.00224235121023
MOLNIYA 1-29            
1 07780U 75036A   22315.72341059  .00000002  00000+0 -78677-1 0  9995
2 07780  63.4135 199.0609 6841556 288.1794  12.5610  2.00603094348570
MOLNIYA 2-14            
1 08195U 75081A   22316.63472731 -.00000511  00000+0  00000+0 0  9997
2 08195  63.3933 172.2464 6757141 292.4058  11.9205  2.02103971345880
MOLNIYA 1-32            
1 08601U 76006A   22316.01559413  .00001285  00000+0  12070-1 0  9992
2 08601  63.4959 277.3590 7193809 283.8846  11.3566  1.99972713 55619
MOLNIYA 1-36            
1 09880U 77021A   22316.77586654 -.00001365  00000+0  00000+0 0  9998
2 09880  63.4957 249.2906 7112044 289.5808  10.5847  2.00785320232348
MOLNIYA 3-8             
1 10455U 77105A   22317.02594872 -.00001473  00000+0  62637-3 0  9999
2 10455  63.4327 335.3380 7349436 282.4574  10.6914  2.00683461330125
MOLNIYA 1-40            
1 10925U 78055A   22317.22676407 -.00000441  00000+0  00000+0 0  9999
2 10925  63.4981  26.9194 7271768 280.7104  11.7175  2.00728306325663
MOLNIYA 3-10            
1 11057U 78095A   22317.42198014  .00000248  00000+0  12986-2 0  9998
2 11057  63.2376 344.5168 5784409 311.4591  11.5973  4.09864655389839
MOLNIYA 3-13            
1 11896U 80063A   22315.49408523 -.00000040  00000+0  00000+0 0  9993
2 11896  62.7416 118.4607 7133526 276.5028  13.8190  2.00653910310043
MOLNIYA 1-49            
1 12156U 81009A   22315.97929251 -.00000752  00000+0  14109-2 0  9991
2 12156  61.6961 142.7678 7307982 264.5672  16.3760  2.05707543224520
MOLNIYA 1-52            
1 13012U 81123A   22312.95513164  .00001361  00000+0  17317-1 0  9996
2 13012  61.6492 257.9000 7216027 256.8059  20.5088  2.00449413299471
MOLNIYA 1-53            
1 13070U 82015A   22317.11269188 -.00001142  00000+0 -18724-1 0  9990
2 13070  62.5746 196.0516 6995714 283.0132  12.9741  2.00543536298248
MOLNIYA 3-20            
1 13875U 83015A   22313.15956442  .00001356  00000+0  29126-2 0  9994
2 13875  62.6569 329.7978 7393486 259.4782  17.4381  2.00733023226613
MOLNIYA 1-56            
1 13890U 83019A   22316.25065355  .00001901  00000+0  13080-2 0  9991
2 13890  62.9113 354.2703 7451866 265.3254  14.7589  1.99920531289555
MOLNIYA 1-63            
1 15429U 84124A   22316.55704406 -.00000451  00000+0  00000+0 0  9994
2 15429  63.7573 153.4889 6683642 258.5893  20.2666  2.00847707277774
MOLNIYA 3-24            
1 15738U 85040A   22316.42298337 -.00000080  00000+0 -14817-3 0  9996
2 15738  63.6201  54.9940 6848365 247.2395  30.2574  2.55628299307657
MOLNIYA 3-27            
1 16393U 85117A   22317.47538145 -.00000048  00000+0  00000+0 0  9997
2 16393  64.3356  61.8611 7032944 247.5115  27.7971  2.12397170277346
MOLNIYA 1-69            
1 17078U 86089A   22315.38122608  .00000551  00000+0  00000+0 0  9996
2 17078  63.9932 172.5645 6679674 256.9566  26.0021  2.00696571263773
MOLNIYA 3-31            
1 17328U 87008A   22316.48960289  .00000245  00000+0  00000+0 0  9993
2 17328  63.6920 110.7994 7103972 253.4213  23.4141  2.00677007258862
MOLNIYA 1-71            
1 18946U 88017A   22315.94691687 -.00000170  00000+0  00000+0 0  9992
2 18946  63.3748 104.0132 7215795 256.3189  20.7380  2.00591344254012
MOLNIYA 1-75            
1 19807U 89014A   22316.18012222 -.00000125  00000+0  00000+0 0  9996
2 19807  64.0016 268.4978 6810280 266.3024  20.0584  2.00572431246966
MOLNIYA 1-80            
1 21118U 91012A   22310.41357133 -.00000287  00000+0  00000+0 0  9997
2 21118  65.1967 317.5459 6760458 275.8092  16.6471  2.05237654233896
MOLNIYA 3-40            
1 21196U 91022A   22317.09951608  .00000236  00000+0  00000+0 0  9995
2 21196  65.0928 310.4896 6785631 272.5641  17.6605  2.03020900232700
MOLNIYA 1-81            
1 21426U 91043A   22317.06765907 -.00000191  00000+0  00000+0 0  9997
2 21426  64.0450 325.2298 7079447 266.1928  17.6349  2.00630057230142
MOLNIYA 3-41            
1 21706U 91065A   22316.67555319  .00000423  00000+0  00000+0 0  9999
2 21706  64.0934 149.7279 6894121 254.5035  25.0904  2.04355880229893
MOLNIYA 3-42            
1 22178U 92067A   22316.68507837  .00000170  00000+0  00000+0 0  9998
2 22178  64.6710 200.4021 6419648 264.6317  24.5199  2.20434604 83323
MOLNIYA 1-86            
1 22671U 93035A   22317.45026975  .00000122  00000+0  19085-3 0  9991
2 22671  63.0878 150.2260 4863232   9.4438 357.1835  5.62757277360687
MOLNIYA 1-87            
1 22949U 93079A   22316.92652475  .00000081  00000+0  00000+0 0  9995
2 22949  64.1226  75.1798 6903061 283.4408  13.4127  2.02879716 77947
MOLNIYA 1-88            
1 23420U 94081A   22315.88028196  .00000102  00000+0  00000+0 0  9999
2 23420  64.2801 163.2672 5795160 280.3077  22.5310  3.34495218118632
MOLNIYA 3-47            
1 23642U 95042A   22316.32584240 -.00000557  00000+0  00000+0 0  9995
2 23642  64.2580  56.8516 6948591 283.7048  13.0535  2.01983184200004
MOLNIYA 1-90            
1 24960U 97054A   22317.45537597  .00000121  00000+0  23731-2 0  9997
2 24960  63.6759 128.9955 6099878 297.6381  14.0660  3.18687381212750
MOLNIYA 1-91            
1 25485U 98054A   22317.19245392  .00000157  00000+0  22925-2 0  9994
2 25485  63.0950 127.1097 6770296 291.8740 293.6654  2.36442055181897
MOLNIYA 3-50            
1 25847U 99036A   22317.03171350 -.00000241  00000+0 -12704-2 0  9992
2 25847  63.2752 311.7016 7344811 282.4211  10.7255  2.00669652171094
